[
  {
    "OBJECT_NAME": "STARLINK-30708",
    "OBJECT_ID": "23148K",
    "EPOCH": "2025-11-11T03:35:18.934080",
    "MEAN_MOTION": 15.30197312,
    "ECCENTRICITY": 0.0001504,
    "INCLINATION": 53.1596,
    "RA_OF_ASC_NODE": 214.8645,
    "ARG_OF_PERICENTER": 79.9246,
    "MEAN_ANOMALY": 280.1925,
    "EPHEMERIS_TYPE": 0,
    "CLASSIFICATION_TYPE": "U",
    "NORAD_CAT_ID": 57944,
    "ELEMENT_SET_NO": 999,
    "REV_AT_EPOCH": 12027,
    "BSTAR": 4.352500000000001e-05,
    "MEAN_MOTION_DOT": 9.3e-06,
    "MEAN_MOTION_DDOT": 0.0,
    "TLE_LINE1": "1 57944U 23148K   25315.14952470  .00000930  00000+0  43525-4 0  9999",
    "TLE_LINE2": "2 57944  53.1596 214.8645 0001504  79.9246 280.1925 15.30197312120278",
    "COMMENT": "Grouped by shell and plane from TLE"
  },
  {
    "OBJECT_NAME": "STARLINK-30705",
    "OBJECT_ID": "23148L",
    "EPOCH": "2025-11-11T03:50:29.685984",
    "MEAN_MOTION": 15.30214182,
    "ECCENTRICITY": 9.35e-05,
    "INCLINATION": 53.1619,
    "RA_OF_ASC_NODE": 214.9365,
    "ARG_OF_PERICENTER": 110.5253,
    "MEAN_ANOMALY": 249.5849,
    "EPHEMERIS_TYPE": 0,
    "CLASSIFICATION_TYPE": "U",
    "NORAD_CAT_ID": 57945,
    "ELEMENT_SET_NO": 999,
    "REV_AT_EPOCH": 12027,
    "BSTAR": 3.1892e-05,
    "MEAN_MOTION_DOT": 5.86e-06,
    "MEAN_MOTION_DDOT": 0.0,
    "TLE_LINE1": "1 57945U 23148L   25315.16006581  .00000586  00000+0  31892-4 0  9996",
    "TLE_LINE2": "2 57945  53.1619 214.9365 0000935 110.5253 249.5849 15.30214182120271",
    "COMMENT": "Grouped by shell and plane from TLE"
  },
  {
    "OBJECT_NAME": "STARLINK-30706",
    "OBJECT_ID": "23148N",
    "EPOCH": "2025-11-11T00:51:31.309056",
    "MEAN_MOTION": 15.30205201,
    "ECCENTRICITY": 0.0001305,
    "INCLINATION": 53.1606,
    "RA_OF_ASC_NODE": 215.5712,
    "ARG_OF_PERICENTER": 89.7559,
    "MEAN_ANOMALY": 270.3592,
    "EPHEMERIS_TYPE": 0,
    "CLASSIFICATION_TYPE": "U",
    "NORAD_CAT_ID": 57947,
    "ELEMENT_SET_NO": 999,
    "REV_AT_EPOCH": 12025,
    "BSTAR": 0.0,
    "MEAN_MOTION_DOT": -2.113e-05,
    "MEAN_MOTION_DDOT": 0.0,
    "TLE_LINE1": "1 57947U 23148N   25315.03577904 -.00002113  00000+0 -59233-4 0  9995",
    "TLE_LINE2": "2 57947  53.1606 215.5712 0001305  89.7559 270.3592 15.30205201120257",
    "COMMENT": "Grouped by shell and plane from TLE"
  },
  {
    "OBJECT_NAME": "STARLINK-30707",
    "OBJECT_ID": "23148Q",
    "EPOCH": "2025-11-11T00:46:57.758880",
    "MEAN_MOTION": 15.30170366,
    "ECCENTRICITY": 0.0001539,
    "INCLINATION": 53.16,
    "RA_OF_ASC_NODE": 215.5583,
    "ARG_OF_PERICENTER": 51.0613,
    "MEAN_ANOMALY": 309.0525,
    "EPHEMERIS_TYPE": 0,
    "CLASSIFICATION_TYPE": "U",
    "NORAD_CAT_ID": 57949,
    "ELEMENT_SET_NO": 999,
    "REV_AT_EPOCH": 12025,
    "BSTAR": 0.0,
    "MEAN_MOTION_DOT": -6.971e-05,
    "MEAN_MOTION_DDOT": 0.0,
    "TLE_LINE1": "1 57949U 23148Q   25315.03261295 -.00006971  00000+0 -22364-3 0  9990",
    "TLE_LINE2": "2 57949  53.1600 215.5583 0001539  51.0613 309.0525 15.30170366120250",
    "COMMENT": "Grouped by shell and plane from TLE"
  },
  {
    "OBJECT_NAME": "STARLINK-30701",
    "OBJECT_ID": "23148R",
    "EPOCH": "2025-11-11T03:45:56.736288",
    "MEAN_MOTION": 15.30198861,
    "ECCENTRICITY": 0.0001251,
    "INCLINATION": 53.1604,
    "RA_OF_ASC_NODE": 214.8935,
    "ARG_OF_PERICENTER": 101.1502,
    "MEAN_ANOMALY": 258.964,
    "EPHEMERIS_TYPE": 0,
    "CLASSIFICATION_TYPE": "U",
    "NORAD_CAT_ID": 57950,
    "ELEMENT_SET_NO": 999,
    "REV_AT_EPOCH": 12027,
    "BSTAR": 1.5039e-05,
    "MEAN_MOTION_DOT": 8.6e-07,
    "MEAN_MOTION_DDOT": 0.0,
    "TLE_LINE1": "1 57950U 23148R   25315.15690667  .00000086  00000+0  15039-4 0  9995",
    "TLE_LINE2": "2 57950  53.1604 214.8935 0001251 101.1502 258.9640 15.30198861120276",
    "COMMENT": "Grouped by shell and plane from TLE"
  },
  {
    "OBJECT_NAME": "STARLINK-30399",
    "OBJECT_ID": "23148S",
    "EPOCH": "2025-11-11T02:05:48.956352",
    "MEAN_MOTION": 15.30197295,
    "ECCENTRICITY": 0.0001478,
    "INCLINATION": 53.161,
    "RA_OF_ASC_NODE": 215.1703,
    "ARG_OF_PERICENTER": 77.8472,
    "MEAN_ANOMALY": 282.2694,
    "EPHEMERIS_TYPE": 0,
    "CLASSIFICATION_TYPE": "U",
    "NORAD_CAT_ID": 57951,
    "ELEMENT_SET_NO": 999,
    "REV_AT_EPOCH": 12026,
    "BSTAR": 2.6867999999999998e-05,
    "MEAN_MOTION_DOT": 4.36e-06,
    "MEAN_MOTION_DDOT": 0.0,
    "TLE_LINE1": "1 57951U 23148S   25315.08737218  .00000436  00000+0  26868-4 0  9993",
    "TLE_LINE2": "2 57951  53.1610 215.1703 0001478  77.8472 282.2694 15.30197295120265",
    "COMMENT": "Grouped by shell and plane from TLE"
  },
  {
    "OBJECT_NAME": "STARLINK-30713",
    "OBJECT_ID": "23148T",
    "EPOCH": "2025-11-11T03:17:04.305696",
    "MEAN_MOTION": 15.30200848,
    "ECCENTRICITY": 0.0001161,
    "INCLINATION": 53.1609,
    "RA_OF_ASC_NODE": 214.7888,
    "ARG_OF_PERICENTER": 85.144,
    "MEAN_ANOMALY": 274.9693,
    "EPHEMERIS_TYPE": 0,
    "CLASSIFICATION_TYPE": "U",
    "NORAD_CAT_ID": 57952,
    "ELEMENT_SET_NO": 999,
    "REV_AT_EPOCH": 12027,
    "BSTAR": 6.8144e-05,
    "MEAN_MOTION_DOT": 1.66e-05,
    "MEAN_MOTION_DDOT": 0.0,
    "TLE_LINE1": "1 57952U 23148T   25315.13685539  .00001660  00000+0  68144-4 0  9991",
    "TLE_LINE2": "2 57952  53.1609 214.7888 0001161  85.1440 274.9693 15.30200848120276",
    "COMMENT": "Grouped by shell and plane from TLE"
  },
  {
    "OBJECT_NAME": "STARLINK-30940",
    "OBJECT_ID": "23180H",
    "EPOCH": "2025-11-11T03:19:50.608416",
    "MEAN_MOTION": 15.25929884,
    "ECCENTRICITY": 0.000139,
    "INCLINATION": 43.0011,
    "RA_OF_ASC_NODE": 216.738,
    "ARG_OF_PERICENTER": 274.048,
    "MEAN_ANOMALY": 86.0213,
    "EPHEMERIS_TYPE": 0,
    "CLASSIFICATION_TYPE": "U",
    "NORAD_CAT_ID": 58409,
    "ELEMENT_SET_NO": 999,
    "REV_AT_EPOCH": 11120,
    "BSTAR": 0.0001676,
    "MEAN_MOTION_DOT": 4.132e-05,
    "MEAN_MOTION_DDOT": 0.0,
    "TLE_LINE1": "1 58409U 23180H   25315.13878019  .00004132  00000+0  16760-3 0  9995",
    "TLE_LINE2": "2 58409  43.0011 216.7380 0001390 274.0480  86.0213 15.25929884111200",
    "COMMENT": "Grouped by shell and plane from TLE"
  },
  {
    "OBJECT_NAME": "STARLINK-30933",
    "OBJECT_ID": "23180J",
    "EPOCH": "2025-11-11T02:29:19.416480",
    "MEAN_MOTION": 15.27586047,
    "ECCENTRICITY": 0.0001902,
    "INCLINATION": 43.007,
    "RA_OF_ASC_NODE": 216.4545,
    "ARG_OF_PERICENTER": 274.4471,
    "MEAN_ANOMALY": 85.6164,
    "EPHEMERIS_TYPE": 0,
    "CLASSIFICATION_TYPE": "U",
    "NORAD_CAT_ID": 58410,
    "ELEMENT_SET_NO": 999,
    "REV_AT_EPOCH": 11120,
    "BSTAR": 0.00010459,
    "MEAN_MOTION_DOT": 2.617e-05,
    "MEAN_MOTION_DDOT": 0.0,
    "TLE_LINE1": "1 58410U 23180J   25315.10369695  .00002617  00000+0  10459-3 0  9994",
    "TLE_LINE2": "2 58410  43.0070 216.4545 0001902 274.4471  85.6164 15.27586047111202",
    "COMMENT": "Grouped by shell and plane from TLE"
  },
  {
    "OBJECT_NAME": "STARLINK-30924",
    "OBJECT_ID": "23180L",
    "EPOCH": "2025-11-11T03:22:59.129760",
    "MEAN_MOTION": 15.27585084,
    "ECCENTRICITY": 6.86e-05,
    "INCLINATION": 42.9996,
    "RA_OF_ASC_NODE": 216.7216,
    "ARG_OF_PERICENTER": 305.2279,
    "MEAN_ANOMALY": 54.8509,
    "EPHEMERIS_TYPE": 0,
    "CLASSIFICATION_TYPE": "U",
    "NORAD_CAT_ID": 58412,
    "ELEMENT_SET_NO": 999,
    "REV_AT_EPOCH": 11120,
    "BSTAR": 0.0001696,
    "MEAN_MOTION_DOT": 4.409e-05,
    "MEAN_MOTION_DDOT": 0.0,
    "TLE_LINE1": "1 58412U 23180L   25315.14096215  .00004409  00000+0  16960-3 0  9999",
    "TLE_LINE2": "2 58412  42.9996 216.7216 0000686 305.2279  54.8509 15.27585084111205",
    "COMMENT": "Grouped by shell and plane from TLE"
  },
  {
    "OBJECT_NAME": "STARLINK-30912",
    "OBJECT_ID": "23180W",
    "EPOCH": "2025-11-11T02:48:58.706496",
    "MEAN_MOTION": 15.27576252,
    "ECCENTRICITY": 0.0001284,
    "INCLINATION": 43.0024,
    "RA_OF_ASC_NODE": 219.9329,
    "ARG_OF_PERICENTER": 261.0015,
    "MEAN_ANOMALY": 99.0691,
    "EPHEMERIS_TYPE": 0,
    "CLASSIFICATION_TYPE": "U",
    "NORAD_CAT_ID": 58422,
    "ELEMENT_SET_NO": 999,
    "REV_AT_EPOCH": 11116,
    "BSTAR": 0.0,
    "MEAN_MOTION_DOT": -3.226e-05,
    "MEAN_MOTION_DDOT": 0.0,
    "TLE_LINE1": "1 58422U 23180W   25315.11734614 -.00003226  00000+0 -10777-3 0  9997",
    "TLE_LINE2": "2 58422  43.0024 219.9329 0001284 261.0015  99.0691 15.27576252111167",
    "COMMENT": "Grouped by shell and plane from TLE"
  },
  {
    "OBJECT_NAME": "STARLINK-30953",
    "OBJECT_ID": "23186U",
    "EPOCH": "2025-11-11T02:25:49.137888",
    "MEAN_MOTION": 15.27598046,
    "ECCENTRICITY": 0.0001157,
    "INCLINATION": 43.0004,
    "RA_OF_ASC_NODE": 217.2236,
    "ARG_OF_PERICENTER": 272.8778,
    "MEAN_ANOMALY": 87.1941,
    "EPHEMERIS_TYPE": 0,
    "CLASSIFICATION_TYPE": "U",
    "NORAD_CAT_ID": 58491,
    "ELEMENT_SET_NO": 999,
    "REV_AT_EPOCH": 10975,
    "BSTAR": 0.00031575,
    "MEAN_MOTION_DOT": 8.441e-05,
    "MEAN_MOTION_DDOT": 0.0,
    "TLE_LINE1": "1 58491U 23186U   25315.10126317  .00008441  00000+0  31575-3 0  9994",
    "TLE_LINE2": "2 58491  43.0004 217.2236 0001157 272.8778  87.1941 15.27598046109757",
    "COMMENT": "Grouped by shell and plane from TLE"
  },
  {
    "OBJECT_NAME": "STARLINK-31145",
    "OBJECT_ID": "24011D",
    "EPOCH": "2025-11-11T02:59:01.254912",
    "MEAN_MOTION": 15.26907172,
    "ECCENTRICITY": 0.000756,
    "INCLINATION": 53.153,
    "RA_OF_ASC_NODE": 213.0864,
    "ARG_OF_PERICENTER": 155.7312,
    "MEAN_ANOMALY": 204.4044,
    "EPHEMERIS_TYPE": 0,
    "CLASSIFICATION_TYPE": "U",
    "NORAD_CAT_ID": 58768,
    "ELEMENT_SET_NO": 999,
    "REV_AT_EPOCH": 10199,
    "BSTAR": 0.0017492,
    "MEAN_MOTION_DOT": 0.00046819,
    "MEAN_MOTION_DDOT": 0.0,
    "TLE_LINE1": "1 58768U 24011D   25315.12432008  .00046819  00000+0  17492-2 0  9990",
    "TLE_LINE2": "2 58768  53.1530 213.0864 0007560 155.7312 204.4044 15.26907172101997",
    "COMMENT": "Grouped by shell and plane from TLE"
  }
]